QIANFAN-65              
1 62795U 25016L   25227.93061254  .00000089  00000+0  11960-3 0  9997
2 62795  88.9812 115.3433 0013545 335.3164  24.7338 13.50963342 31209
QIANFAN-66              
1 62796U 25016M   25227.95931625  .00000081  00000+0  10753-3 0  9999
2 62796  88.9832 115.2871 0014503 330.0633  29.9687 13.50958434 31250
QIANFAN-67              
1 62797U 25016N   25227.96347869  .00000086  00000+0  11406-3 0  9993
2 62797  88.9822 115.3239 0014721 337.1095  22.9398 13.50967151 31226
QIANFAN-68              
1 62798U 25016P   25228.33788011  .00000090  00000+0  12126-3 0  9999
2 62798  88.9824 115.3294 0015237 333.9195  26.1187 13.50964638 31250
QIANFAN-69              
1 62799U 25016Q   25227.89758856  .00000091  00000+0  12263-3 0  9997
2 62799  88.9804 115.2667 0015490 336.1578  23.8854 13.50960143 31233
QIANFAN-70              
1 62800U 25016R   25227.91409084  .00000092  00000+0  12369-3 0  9997
2 62800  88.9825 115.3782 0014732 326.4589  33.5628 13.50964010 31199
QIANFAN-71              
1 62801U 25016S   25227.91005879  .00000092  00000+0  12355-3 0  9997
2 62801  88.9819 115.3654 0015522 339.7531  20.3003 13.50963782 31199
QIANFAN-72              
1 62802U 25016T   25228.35022120  .00000094  00000+0  12757-3 0  9993
2 62802  88.9808 115.3402 0019106 343.5953  16.4577 13.50959284 31242
